STARLINK-3618           
1 51998U 22025AU  22082.58334491  .00021630  00000+0  15818-3 0  9991
2 51998  53.2184  70.3353 0000902  60.6423 342.4355 15.73193412  2420
STARLINK-3667           
1 51999U 22025AV  22082.58334491 -.00100056  00000+0 -71494-3 0  9996
2 51999  53.2183  70.3362 0000930  53.6075 348.7856 15.73267744  2421
STARLINK-3653           
1 52000U 22025AW  22082.58334491 -.00101439  00000+0 -72504-3 0  9999
2 52000  53.2189  70.3328 0001086  73.0012 331.3842 15.73265963  2427
STARLINK-3659           
1 52001U 22025AX  22082.58334491  .00009196  00000+0  69891-4 0  9991
2 52001  53.2188  70.3334 0001039  69.9812 333.7657 15.73191380  2425
STARLINK-3668           
1 52002U 22025AY  22082.58334491  .00020870  00000+0  15295-3 0  9992
2 52002  53.2185  70.3317 0001162  73.3978 331.6230 15.73168856  2429
STARLINK-3654           
1 52003U 22025AZ  22082.58334491 -.00009868  00000+0 -65785-4 0  9999
2 52003  53.2188  70.3300 0001270  60.7257 344.7456 15.73265899  2425
FALCON 9 DEB            
1 52004U 22025BA  22082.57394187  .00188046  24281-4  56371-3 0  9993
2 52004  53.2279  69.6355 0005317 286.2520  73.7923 15.91959845  2397
FALCON 9 DEB            
1 52005U 22025BB  22082.50700358  .00221445  29587-4  63778-3 0  9992
2 52005  53.2255  69.9240 0005639 259.5452 100.4942 15.92672291  2388
FALCON 9 DEB            
1 52006U 22025BC  22082.49670931  .00227072  30899-4  60747-3 0  9997
2 52006  53.2221  69.8472 0009730 275.0839  84.9080 15.94002498  2383
FALCON 9 DEB            
1 52007U 22025BD  22082.55696212  .00206341  27462-4  54907-3 0  9994
2 52007  53.2213  69.5080 0009943 261.0416  98.9488 15.94126415  2393
2022-026A               
1 52008U 22026A   22082.03962003 -.00000074  00000+0  00000+0 0  9994
2 52008  97.4862  83.1431 0046923 247.8740 111.7698 15.19151036  1128
2022-026B               
1 52009U 22026B   22081.20725550 -.00000067  00000+0  00000+0 0  9999
2 52009  97.5034  82.2676 0025870 214.2292 145.7245 15.13622091   997
2022-026C               
1 52010U 22026C   22081.93459761 -.00000067  00000+0  00000+0 0  9999
2 52010  97.5004  82.9818 0025852 213.7365 146.2392 15.13611193  1100
2022-026D               
1 52011U 22026D   22082.46363030 -.00000067  00000+0  00000+0 0  9992
2 52011  97.5007  83.5048 0026866 207.5582 152.4339 15.13572263  1175
2022-026E               
1 52012U 22026E   22082.33123311 -.00000067  00000+0  00000+0 0  9995
2 52012  97.5103  83.3770 0028450 208.1256 151.8732 15.13593429  1165
2022-026F               
1 52013U 22026F   22079.42235626 -.00000067  00000+0  00000+0 0  9995
2 52013  97.5026  80.5082 0027126 216.6779 143.2622 15.13611904   710
2022-026G               
1 52014U 22026G   22080.54618366 -.00000067  00000+0  00000+0 0  9997
2 52014  97.5024  81.6180 0026762 213.9733 145.9870 15.13620817   880
2022-026H               
1 52015U 22026H   22082.00051857 -.00000067  00000+0  00000+0 0  9997
2 52015  97.5010  83.0475 0026578 210.5370 149.4320 15.13633167  1101
2022-026J               
1 52016U 22026J   22082.46326283 -.00000067  00000+0  00000+0 0  9996
2 52016  97.5031  83.5042 0026505 209.1059 150.8596 15.13635287  1171
2022-026K               
1 52017U 22026K   22080.21557936 -.00000067  00000+0  00000+0 0  9999
2 52017  97.5023  81.2913 0026678 216.0883 143.8543 15.13637455   833
2022-026L               
1 52018U 22026L   22081.73610944 -.00000067  00000+0  00000+0 0  9997
2 52018  97.5034  82.7867 0026941 209.5468 150.4734 15.13627944  1063
2022-026M               
1 52019U 22026M   22082.19884065 -.00000067  00000+0  00000+0 0  9996
2 52019  97.4997  83.2401 0026637 207.7138 152.2643 15.13632478  1097
2022-026N               
1 52020U 22026N   22082.26494493 -.00000067  00000+0  00000+0 0  9998
2 52020  97.5046  83.3062 0025852 208.6986 151.2694 15.13632239  1098
2022-026P               
1 52021U 22026P   22081.00887036 -.00000067  00000+0  00000+0 0  9999
2 52021  97.5035  82.0703 0025802 214.7789 145.1812 15.13638595   824
2022-026Q               
1 52022U 22026Q   22081.47161431 -.00000067  00000+0  00000+0 0  9995
2 52022  97.5020  82.5245 0026153 212.2104 147.7559 15.13641062   895
2022-026R               
1 52023U 22026R   22081.73603497 -.00000067  00000+0  00000+0 0  9998
2 52023  97.5077  82.7896 0026108 213.0652 146.8958 15.13643488   931
2022-026S               
1 52024U 22026S   22082.00045952 -.00000067  00000+0  00000+0 0  9996
2 52024  97.5038  83.0463 0026764 209.1089 150.8761 15.13645400   978
2022-026T               
1 52025U 22026T   22082.46320273 -.00000067  00000+0  00000+0 0  9999
2 52025  97.5061  83.5048 0027043 206.5227 153.4644 15.13646939  1041
2022-026U               
1 52026U 22026U   22082.26474255 -.00000068  00000+0  00000+0 0  9999
2 52026  97.5022  83.3052 0029724 207.4474 152.5396 15.13697037   929
2022-026V               
1 52027U 22026V   22082.33093368 -.00000067  00000+0  00000+0 0  9999
2 52027  97.5045  83.3931 0022992 211.4871 148.5124 15.13671483   939
YAOGAN-34 02            
1 52084U 22027A   22082.81059160  .00000019  00000+0  18020-3 0  9999
2 52084  63.3974 213.0471 0012933 263.0063  96.9487 13.46728666   887
CZ-4C R/B               
1 52085U 22027B   22082.50099576  .00000088  00000+0  21648-3 0  9997
2 52085  63.3980 213.3121 0102161  42.5771 318.3127 13.65321882   858
SOYUZ-MS 21             
1 52086U 22028A   22082.38494106  .00005724  00000+0  11004-3 0  9990
2 52086  51.6441  41.5413 0004034 303.3924 194.7253 15.49508070331879
STARLINK-3537           
1 52088U 22029A   22082.58334491  .00147309  00000+0  52199-3 0  9991
2 52088  53.2166 122.4598 0010348 299.0999 326.3106 15.88028182  1423
STARLINK-3722           
1 52089U 22029B   22082.58334491 -.00872022  00000+0 -46650-2 0  9995
2 52089  53.2172 122.5291 0001182  66.5590 165.4127 15.81838713  1946
STARLINK-3712           
1 52090U 22029C   22082.58334491 -.00872108  00000+0 -46520-2 0  9998
2 52090  53.2172 122.5282 0001273  54.5056 178.1784 15.81899573  1461
STARLINK-3713           
1 52091U 22029D   22082.58334491 -.00871986  00000+0 -46607-2 0  9998
2 52091  53.2172 122.5285 0001145  66.8395 165.3910 15.81857706  1422
STARLINK-3716           
1 52092U 22029E   22082.58334491 -.00872024  00000+0 -46563-2 0  9994
2 52092  53.2172 122.5286 0001139  68.4891 163.9647 15.81878880  1940
STARLINK-3673           
1 52093U 22029F   22082.58334491 -.00872411  00000+0 -46351-2 0  9990
2 52093  53.2172 122.5257 0001405  43.9402 189.6328 15.81983839  1426
STARLINK-3714           
1 52094U 22029G   22082.58334491 -.00872295  00000+0 -46485-2 0  9999
2 52094  53.2172 122.5275 0001316  50.9746 181.9416 15.81920213  1438
STARLINK-3701           
1 52095U 22029H   22082.58334491 -.00872281  00000+0 -46265-2 0  9991
2 52095  53.2172 122.5245 0001247  58.2266 175.8634 15.82021265  1464
STARLINK-3717           
1 52096U 22029J   22082.58334491  .00156748  00000+0  56329-3 0  9996
2 52096  53.2165 122.4632 0009720 296.6763 326.8423 15.87727329  1463
STARLINK-3676           
1 52097U 22029K   22082.58334491  .00156546  00000+0  56103-3 0  9993
2 52097  53.2163 122.4635 0009678 298.9561 324.1359 15.87783805  1424
STARLINK-3665           
1 52098U 22029L   22082.58334491 -.00872224  00000+0 -46304-2 0  9995
2 52098  53.2172 122.5253 0001192  61.9502 171.8847 15.82002333  1422
STARLINK-3662           
1 52099U 22029M   22082.58334491  .00156654  00000+0  55956-3 0  9990
2 52099  53.2162 122.4608 0009481 301.4898 322.9015 15.87853275  1468
STARLINK-3702           
1 52100U 22029N   22082.58334491 -.00872274  00000+0 -46221-2 0  9992
2 52100  53.2172 122.5242 0001166  65.4606 168.8527 15.82042022  1946
STARLINK-3703           
1 52101U 22029P   22082.58334491 -.00872273  00000+0 -45994-2 0  9998
2 52101  53.2172 122.5215 0001162  64.1397 171.2644 15.82146525  1420
STARLINK-3709           
1 52102U 22029Q   22082.58334491 -.00872281  00000+0 -46178-2 0  9993
2 52102  53.2172 122.5236 0001213  58.1139 176.4422 15.82061542  1468
STARLINK-3705           
1 52103U 22029R   22082.58334491 -.00872257  00000+0 -45911-2 0  9991
2 52103  53.2172 122.5204 0001095  85.3107 150.5808 15.82185005  1427
STARLINK-3693           
1 52104U 22029S   22082.58334491  .00143529  00000+0  53140-3 0  9997
2 52104  53.2163 122.4753 0008773 286.4769 330.9383 15.87175313  1422
STARLINK-3706           
1 52105U 22029T   22082.58334491 -.00872340  00000+0 -45820-2 0  9995
2 52105  53.2172 122.5195 0001159  66.9170 169.3704 15.82228704  1948
STARLINK-3670           
1 52106U 22029U   22082.58334491 -.00872326  00000+0 -45949-2 0  9992
2 52106  53.2172 122.5213 0001193  62.3008 173.3023 15.82168431  1431
STARLINK-3658           
1 52107U 22029V   22082.58334491 -.00872332  00000+0 -45730-2 0  9998
2 52107  53.2172 122.5184 0001114  75.1857 161.5246 15.82270580  1464
STARLINK-3698           
1 52108U 22029W   22082.58334491 -.00872329  00000+0 -45864-2 0  9993
2 52108  53.2172 122.5202 0001125  76.3671 159.6972 15.82208391  1943
STARLINK-3731           
1 52109U 22029X   22081.66667824 -.00883796  00000+0 -42647-2 0  9997
2 52109  53.2172 127.1205 0000237  78.5043 331.2037 15.84045444  1803
STARLINK-3687           
1 52110U 22029Y   22082.58334491 -.00872307  00000+0 -45775-2 0  9993
2 52110  53.2172 122.5192 0001115  74.5517 161.9575 15.82249048  1424
STARLINK-3708           
1 52111U 22029Z   22082.58334491 -.00872412  00000+0 -45560-2 0  9993
2 52111  53.2172 122.5165 0001143  69.6111 167.9878 15.82351328  1439
STARLINK-3734           
1 52112U 22029AA  22082.58334491 -.00872344  00000+0 -45694-2 0  9996
2 52112  53.2172 122.5181 0001096  81.9575 155.0285 15.82287732  1466
STARLINK-3736           
1 52113U 22029AB  22082.58334491 -.00872402  00000+0 -45479-2 0  9993
2 52113  53.2172 122.5154 0001105  75.3740 162.7106 15.82389055  1467
